<?xml version='1.0' encoding='UTF-8'?>
<osm version='0.6' upload='false' generator='JOSM'>
  <node id='-138454' action='modify' lat='0.00024952587' lon='0.00015450332' />
  <node id='-138455' lat='0.00007427053' lon='0.00014969212' />
  <node id='-138456' action='modify' lat='0.00001962485' lon='-0.00007260903' />
  <node id='-138457' action='modify' lat='0.00029783532' lon='-0.00007866055' />
  <node id='-138458' action='modify' lat='0.00024878176' lon='-0.00015406411' />
  <node id='-138459' action='modify' lat='0.00029810576' lon='0.00008655763' />
  <node id='-138460' action='modify' lat='0.00001664344' lon='0.00009531225' />
  <node id='-138461' lat='0.00007221386' lon='-0.00013402456' />
  <node id='-138462' lat='0.0' lon='0.0'>
    <tag k='name' v='origin' />
  </node>
  <node id='-138463' lat='-0.00027414127' lon='0.00000684142' />
  <node id='-138464' lat='0.00014606217' lon='0.00015889716' />
  <node id='-138465' lat='0.0001465974' lon='0.00046058178' />
  <node id='-138466' lat='0.00016473801' lon='-0.00014740415' />
  <node id='-138467' lat='0.00016451969' lon='-0.00043597545' />
  <node id='-138468' lat='0.0002283413' lon='0.00021119224' />
  <node id='-138469' lat='0.00023440754' lon='0.00018918045' />
  <node id='-138470' lat='0.00024014213' lon='0.00017540746' />
  <node id='-138471' lat='0.00025269371' lon='0.00015258486' />
  <node id='-138472' lat='0.00027624378' lon='0.00012226156' />
  <node id='-138473' lat='0.00029416593' lon='0.00010833344' />
  <node id='-138474' lat='0.00031847671' lon='0.00009170032' />
  <node id='-138475' lat='0.00031828771' lon='-0.00009266356' />
  <node id='-138476' lat='0.00031978905' lon='0.00001239899' />
  <node id='-138477' lat='0.00058154714' lon='0.00000418943' />
  <node id='-138478' lat='0.00008061798' lon='-0.00019530375' />
  <node id='-138479' lat='0.0000704811' lon='-0.0001663173' />
  <node id='-138480' lat='0.00006381044' lon='-0.00015151176' />
  <node id='-138481' lat='0.00005424373' lon='-0.000134921' />
  <node id='-138482' lat='0.00002948841' lon='-0.00010749743' />
  <node id='-138483' lat='0.0000159036' lon='-0.00009683091' />
  <node id='-138484' lat='0.00000089679' lon='-0.00008323139' />
  <node id='-138485' lat='-0.00001738126' lon='-0.00007425408' />
  <node id='-138486' lat='-0.00004251189' lon='-0.00006460655' />
  <node id='-138487' lat='-0.00005706457' lon='-0.00006106921' />
  <node id='-138488' lat='0.00013783588' lon='-0.00042222714' />
  <node id='-138489' lat='0.0001378813' lon='-0.00014706234' />
  <node id='-138490' lat='0.00011242024' lon='-0.00042336119' />
  <node id='-138491' lat='0.00011365212' lon='-0.00014675398' />
  <node id='-138492' lat='0.00031901484' lon='-0.00001425978' />
  <node id='-138493' lat='0.00057756734' lon='-0.00002303634' />
  <node id='-138494' lat='0.00031868687' lon='-0.00003961768' />
  <node id='-138495' lat='0.00057681465' lon='-0.00004775896' />
  <node id='-138496' lat='0.00032622471' lon='-0.00008846491' />
  <node id='-138497' lat='0.000336574' lon='-0.00008400569' />
  <node id='-138498' lat='0.00034501759' lon='-0.00008017828' />
  <node id='-138499' lat='0.0003580549' lon='-0.00007670062' />
  <node id='-138500' lat='0.00036448835' lon='-0.00007590803' />
  <node id='-138501' lat='0.00037735902' lon='-0.00007403144' />
  <node id='-138502' lat='0.00038525582' lon='-0.00007296599' />
  <node id='-138503' lat='0.00039709538' lon='-0.00007180499' />
  <node id='-138504' lat='0.00040790947' lon='-0.00007092242' />
  <node id='-138505' lat='0.00042265503' lon='-0.00007081862' />
  <node id='-138506' lat='0.00043476206' lon='-0.00007155569' />
  <node id='-138507' lat='0.00045037586' lon='-0.00007204592' />
  <node id='-138508' lat='0.00046569585' lon='-0.00007267814' />
  <node id='-138509' lat='0.0004420542' lon='-0.0000720856' />
  <node id='-138510' lat='0.00031255758' lon='-0.00009550537' />
  <node id='-138511' lat='0.00030372863' lon='-0.00010093129' />
  <node id='-138512' lat='0.00029606359' lon='-0.0001066635' />
  <node id='-138513' lat='0.00028824508' lon='-0.00011297675' />
  <node id='-138514' lat='0.00028158859' lon='-0.00011974201' />
  <node id='-138515' lat='0.00027375316' lon='-0.00012736673' />
  <node id='-138516' lat='0.00026487534' lon='-0.00013658138' />
  <node id='-138517' lat='0.00024983102' lon='-0.0001598549' />
  <node id='-138518' lat='0.00024173121' lon='-0.00017665817' />
  <node id='-138519' lat='0.00023415133' lon='-0.00019842336' />
  <node id='-138520' lat='0.00023011206' lon='-0.00021731873' />
  <node id='-138521' lat='0.0002278694' lon='-0.00023273909' />
  <node id='-138522' lat='0.00022649498' lon='-0.00024875349' />
  <node id='-138523' lat='0.0002256217' lon='-0.00027118701' />
  <node id='-138524' lat='0.00022587851' lon='-0.0002965498' />
  <node id='-138525' lat='0.00022702484' lon='-0.00034349409' />
  <node id='-138526' lat='0.00022740553' lon='-0.00039319762' />
  <node id='-138527' lat='0.00022792171' lon='-0.00043240942' />
  <node id='-138528' lat='0.0000755624' lon='-0.00017979019' />
  <node id='-138529' lat='0.00008333388' lon='-0.00021107845' />
  <node id='-138530' lat='0.00008488991' lon='-0.00022625568' />
  <node id='-138531' lat='0.00008462677' lon='-0.00024665658' />
  <node id='-138532' lat='0.00008464053' lon='-0.00026822696' />
  <node id='-138533' lat='0.00008485599' lon='-0.00029679565' />
  <node id='-138534' lat='0.00008378351' lon='-0.00033467559' />
  <node id='-138535' lat='0.00008374465' lon='-0.00036032614' />
  <node id='-138536' lat='0.00008402279' lon='-0.00040667646' />
  <node id='-138537' lat='0.00008399147' lon='-0.00043174412' />
  <node id='-138538' lat='0.0000841105' lon='-0.00044515415' />
  <node id='-138539' lat='0.0000002612' lon='0.00002579396' />
  <node id='-138540' lat='-0.0002761423' lon='0.00003280983' />
  <node id='-138541' lat='0.00000029931' lon='0.00005049825' />
  <node id='-138542' lat='-0.00027553658' lon='0.00005714171' />
  <node id='-138543' lat='0.00019670903' lon='0.00015795795' />
  <node id='-138544' lat='0.00019685964' lon='0.00046402292' />
  <node id='-138545' lat='0.00017189548' lon='0.0001584181' />
  <node id='-138546' lat='0.00017292237' lon='0.00046432771' />
  <node id='-138547' lat='0.00032311325' lon='0.00008901819' />
  <node id='-138548' lat='0.00034550816' lon='0.00008232036' />
  <node id='-138549' lat='0.00035218089' lon='0.00007902904' />
  <node id='-138550' lat='0.00036032826' lon='0.00007688491' />
  <node id='-138551' lat='0.00036469573' lon='0.00007595485' />
  <node id='-138552' lat='0.00037051903' lon='0.00007471477' />
  <node id='-138553' lat='0.00037664177' lon='0.00007405386' />
  <node id='-138554' lat='0.00038597184' lon='0.00007306062' />
  <node id='-138555' lat='0.0003958895' lon='0.00007235139' />
  <node id='-138556' lat='0.0004095908' lon='0.00007071954' />
  <node id='-138557' lat='0.00041921654' lon='0.00007001403' />
  <node id='-138558' lat='0.00043177274' lon='0.00007014569' />
  <node id='-138559' lat='0.00044257352' lon='0.00007000835' />
  <node id='-138560' lat='0.00045994069' lon='0.00006964153' />
  <node id='-138561' lat='0.00047920532' lon='0.00006925055' />
  <node id='-138562' lat='0.00051525705' lon='0.00006879162' />
  <node id='-138563' lat='0.00056618522' lon='0.00006726886' />
  <node id='-138564' lat='0.00051896111' lon='-0.00007408469' />
  <node id='-138565' lat='0.00057631144' lon='-0.00007568913' />
  <node id='-138566' lat='-0.00027430539' lon='0.00008467173' />
  <node id='-138567' lat='-0.00023898695' lon='0.00008393069' />
  <node id='-138568' lat='-0.00019782263' lon='0.00008369821' />
  <node id='-138569' lat='-0.00014207746' lon='0.00008211417' />
  <node id='-138570' lat='-0.00008837573' lon='0.00008055614' />
  <node id='-138571' lat='-0.00006703936' lon='0.00008232498' />
  <node id='-138572' lat='-0.00004772387' lon='0.00008586848' />
  <node id='-138573' lat='-0.00003101685' lon='0.00009090263' />
  <node id='-138574' lat='-0.00001209427' lon='0.00009794915' />
  <node id='-138575' lat='0.00000044682' lon='0.0001048991' />
  <node id='-138576' lat='0.00001219391' lon='0.00011352616' />
  <node id='-138577' lat='0.00002310204' lon='0.00012169476' />
  <node id='-138578' lat='0.00003639816' lon='0.00013391382' />
  <node id='-138579' lat='0.00004638831' lon='0.00014615034'>
    <tag k='name' v='R1_0' />
  </node>
  <node id='-138580' lat='0.00005657573' lon='0.00015901655' />
  <node id='-138581' lat='0.00006541104' lon='0.0001762477' />
  <node id='-138582' lat='0.00007189222' lon='0.00019205137' />
  <node id='-138583' lat='0.00007766326' lon='0.00020939447' />
  <node id='-138584' lat='0.00008045222' lon='0.000221893' />
  <node id='-138585' lat='0.00008197421' lon='0.00023236725' />
  <node id='-138586' lat='0.00008295337' lon='0.00024037075' />
  <node id='-138587' lat='0.00008416276' lon='0.00024924578' />
  <node id='-138588' lat='0.00008503083' lon='0.00025994689' />
  <node id='-138589' lat='0.00008499392' lon='0.00026840055' />
  <node id='-138590' lat='0.00008538244' lon='0.00028719668' />
  <node id='-138591' lat='0.0000858605' lon='0.00030161932' />
  <node id='-138592' lat='0.00008636866' lon='0.0003183735' />
  <node id='-138593' lat='0.00008652285' lon='0.0003303226' />
  <node id='-138594' lat='0.00008705545' lon='0.00034897115' />
  <node id='-138595' lat='0.00008704111' lon='0.00035917346' />
  <node id='-138596' lat='0.00008680068' lon='0.00037447972' />
  <node id='-138597' lat='0.00008687891' lon='0.00042578073' />
  <node id='-138598' lat='0.00008750325' lon='0.00047416005' />
  <node id='-138600' lat='0.00022707697' lon='0.00022636605' />
  <node id='-138601' lat='0.00022668632' lon='0.00026397311' />
  <node id='-138602' lat='0.00022573442' lon='0.00030333625' />
  <node id='-138603' lat='0.00022638879' lon='0.00035404702' />
  <node id='-138604' lat='0.00022587783' lon='0.00038232796' />
  <node id='-138605' lat='0.0002253044' lon='0.00042839055' />
  <node id='-138606' lat='0.00022546382' lon='0.00046336722' />
  <node id='-138607' lat='0.00030514599' lon='0.00009944901' />
  <node id='-138608' lat='0.00026502706' lon='0.0001354487' />
  <node id='-138609' lat='0.00025857077' lon='0.00014420268' />
  <node id='-138610' lat='0.00024467976' lon='0.00016507523' />
  <node id='-138611' lat='0.00024233724' lon='0.00017020611' />
  <node id='-138612' lat='0.00023148949' lon='0.00020065906' />
  <node id='-138613' lat='-0.00006755686' lon='-0.00005962382' />
  <node id='-138614' lat='-0.00007600557' lon='-0.00005820457' />
  <node id='-138615' lat='-0.00008475372' lon='-0.00005736451' />
  <node id='-138616' lat='-0.00009569126' lon='-0.00005649658' />
  <node id='-138617' lat='-0.00010955363' lon='-0.00005602866' />
  <node id='-138618' lat='-0.00012458541' lon='-0.00005569174' />
  <node id='-138619' lat='-0.00019787173' lon='-0.00005592524' />
  <node id='-138620' lat='-0.00028480338' lon='-0.00005015499' />
  <node id='-138621' lat='0.00056365019' lon='0.00006734466' />
  <node id='-138622' lat='0.00029985694' lon='0.00004205954'>
    <tag k='name' v='R2_1' />
  </node>
  <node id='-138623' lat='0.000591273' lon='0.00003467251' />
  <node id='-138624' lat='0.00011599209' lon='0.00014430003'>
    <tag k='name' v='R1_1' />
  </node>
  <node id='-138625' lat='0.00011647576' lon='0.00046702121' />
  <node id='-138626' lat='0.00019388971' lon='-0.00013057324'>
    <tag k='name' v='R3_1' />
  </node>
  <node id='-138627' lat='0.00019409503' lon='-0.00043573018' />
  <node id='-138628' lat='0.00001856483' lon='-0.00003001353'>
    <tag k='name' v='R4_1' />
  </node>
  <node id='-138629' lat='-0.00026543814' lon='-0.00002402783' />
  <node id='-138630' lat='0.00001909655' lon='-0.000000062'>
    <tag k='name' v='R4_2' />
  </node>
  <node id='-138631' lat='0.00001918947' lon='0.00002565181'>
    <tag k='name' v='R4_3' />
  </node>
  <node id='-138632' lat='0.00001927735' lon='0.00004997307'>
    <tag k='name' v='R4_4' />
  </node>
  <node id='-138633' lat='0.00013803502' lon='-0.00012893238'>
    <tag k='name' v='R3_3' />
  </node>
  <node id='-138634' lat='0.00011382504' lon='-0.00012864021'>
    <tag k='name' v='R3_4' />
  </node>
  <node id='-138635' lat='0.00016518833' lon='-0.00012926007'>
    <tag k='name' v='R3_2' />
  </node>
  <node id='-138636' lat='0.00006040218' lon='-0.00014565777' />
  <node id='-138637' lat='0.00029922863' lon='-0.00010403259'>
    <tag k='name' v='R2_5' />
  </node>
  <node id='-138638' lat='0.00029935339' lon='-0.00003949049'>
    <tag k='name' v='R2_4' />
  </node>
  <node id='-138639' lat='0.00029940273' lon='-0.00001397095'>
    <tag k='name' v='R2_3' />
  </node>
  <node id='-138640' lat='0.00029945419' lon='0.00001264373'>
    <tag k='name' v='R2_2' />
  </node>
  <node id='-138641' lat='0.00019660277' lon='0.00014351802'>
    <tag k='name' v='R1_4' />
  </node>
  <node id='-138642' lat='0.00017184914' lon='0.00014396222'>
    <tag k='name' v='R1_3' />
  </node>
  <node id='-138643' lat='0.00014559372' lon='0.00014397109'>
    <tag k='name' v='R1_2' />
  </node>
  <node id='-138644' lat='0.00001870362' lon='-0.00009901584'>
    <tag k='name' v='R4_0' />
  </node>
  <node id='-138645' lat='0.00026141423' lon='0.00014004507' />
  <node id='-138646' lat='0.00025990128' lon='0.00014214795'>
    <tag k='name' v='R1_5' />
  </node>
  <node id='-138647' lat='0.00001957806' lon='0.00011915656'>
    <tag k='name' v='R4_5' />
  </node>
  <node id='-138648' lat='0.0002498728' lon='0.0001569328' />
  <node id='-138649' lat='0.00029962237' lon='0.00010388576'>
    <tag k='name' v='R2_0' />
  </node>
  <node id='-138650' lat='0.00027074764' lon='-0.00013055589'>
    <tag k='name' v='R3_0' />
  </node>
  <node id='-138651' lat='0.00025714113' lon='-0.00014879043' />
  <node id='-138652' lat='0.00005701145' lon='0.00015983149' />
  <node id='-138653' lat='0.00014599906' lon='0.00046691871' />
  <node id='-138654' lat='0.0005931223' lon='0.00000545689' />
  <node id='-138655' lat='0.00016682178' lon='-0.00043564281' />
  <node id='-138656' lat='-0.00026619034' lon='0.00000631357' />
  <node id='-138657' lat='0.00004785539' lon='-0.00012784409'>
    <tag k='name' v='R3_5' />
  </node>
  <node id='-138658' lat='0.00003193645' lon='0.00022109221' />
  <node id='-138659' lat='0.00003267021' lon='0.00024105175' />
  <node id='-138660' lat='0.00028374541' lon='-0.00019385158' />
  <node id='-138661' lat='0.00028146066' lon='-0.00022330028' />
  <node id='-138662' lat='-0.00005656945' lon='-0.00014245105' />
  <node id='-138663' lat='-0.00005680032' lon='-0.00012343012' />
  <node id='-138664' lat='0.00036000161' lon='0.00010613636' />
  <node id='-138665' lat='0.00036053714' lon='0.00012918876' />
  <node id='-138666' action='modify' lat='0.00058787262' lon='0.00006984408' />
  <node id='-138667' action='modify' lat='0.0005907819' lon='-0.00007663758' />
  <node id='-138668' action='modify' lat='-0.0002861737' lon='0.00008536639' />
  <node id='1000' version='1' lat='0.00026073562' lon='0.00012117072' />
  <node id='1001' version='1' lat='0.00026156995' lon='0.00010019351' />
  <node id='1002' version='1' lat='0.00026240429' lon='0.00007921628' />
  <node id='1003' version='1' lat='0.00026323863' lon='0.00005823906' />
  <node id='1004' version='1' lat='0.00026407296' lon='0.00003726184' />
  <node id='1005' version='1' lat='0.00026490729' lon='0.00001628463' />
  <node id='1006' version='1' lat='0.00026574162' lon='-0.00000469258' />
  <node id='1007' version='1' lat='0.00026657596' lon='-0.00002566981' />
  <node id='1008' version='1' lat='0.0002674103' lon='-0.00004664703' />
  <node id='1009' version='1' lat='0.00026824463' lon='-0.00006762424' />
  <node id='1010' version='1' lat='0.00026907897' lon='-0.00008860146' />
  <node id='1011' version='1' lat='0.0002699133' lon='-0.00010957868' />
  <node id='1013' version='1' lat='0.00019639408' lon='0.00012243407' />
  <node id='1014' version='1' lat='0.00019618538' lon='0.00010135013' />
  <node id='1015' version='1' lat='0.00019597668' lon='0.00008026618' />
  <node id='1016' version='1' lat='0.00019576799' lon='0.00005918224' />
  <node id='1017' version='1' lat='0.00019555929' lon='0.0000380983' />
  <node id='1018' version='1' lat='0.0001953506' lon='0.00001701435' />
  <node id='1019' version='1' lat='0.0001951419' lon='-0.00000406959' />
  <node id='1020' version='1' lat='0.0001949332' lon='-0.00002515353' />
  <node id='1021' version='1' lat='0.0001947245' lon='-0.00004623747' />
  <node id='1022' version='1' lat='0.00019451581' lon='-0.00006732141' />
  <node id='1023' version='1' lat='0.0001943071' lon='-0.00008840536' />
  <node id='1024' version='1' lat='0.00019409841' lon='-0.0001094893' />
  <node id='1026' version='1' lat='0.00017133677' lon='0.00012294512' />
  <node id='1027' version='1' lat='0.0001708244' lon='0.00010192802' />
  <node id='1028' version='1' lat='0.00017031203' lon='0.00008091092' />
  <node id='1029' version='1' lat='0.00016979966' lon='0.00005989382' />
  <node id='1030' version='1' lat='0.00016928729' lon='0.00003887671' />
  <node id='1031' version='1' lat='0.00016877492' lon='0.00001785962' />
  <node id='1032' version='1' lat='0.00016826254' lon='-0.00000315749' />
  <node id='1033' version='1' lat='0.00016775018' lon='-0.00002417458' />
  <node id='1034' version='1' lat='0.00016723781' lon='-0.00004519168' />
  <node id='1035' version='1' lat='0.00016672544' lon='-0.00006620877' />
  <node id='1036' version='1' lat='0.00016621307' lon='-0.00008722588' />
  <node id='1037' version='1' lat='0.0001657007' lon='-0.00010824297' />
  <node id='1039' version='1' lat='0.00013861646' lon='-0.00010793981' />
  <node id='1040' version='1' lat='0.0001391979' lon='-0.00008694723' />
  <node id='1041' version='1' lat='0.00013977934' lon='-0.00006595466' />
  <node id='1042' version='1' lat='0.00014036077' lon='-0.00004496209' />
  <node id='1043' version='1' lat='0.00014094221' lon='-0.00002396952' />
  <node id='1044' version='1' lat='0.00014152365' lon='-0.00000297695' />
  <node id='1045' version='1' lat='0.00014210509' lon='0.00001801564' />
  <node id='1046' version='1' lat='0.00014268653' lon='0.00003900821' />
  <node id='1047' version='1' lat='0.00014326797' lon='0.00006000078' />
  <node id='1048' version='1' lat='0.00014384941' lon='0.00008099336' />
  <node id='1049' version='1' lat='0.00014443084' lon='0.00010198594' />
  <node id='1050' version='1' lat='0.00014501228' lon='0.00012297852' />
  <node id='1052' version='1' lat='0.00011399173' lon='-0.00010764481' />
  <node id='1053' version='1' lat='0.00011415844' lon='-0.00008664941' />
  <node id='1054' version='1' lat='0.00011432513' lon='-0.00006565401' />
  <node id='1055' version='1' lat='0.00011449182' lon='-0.00004465861' />
  <node id='1056' version='1' lat='0.00011465852' lon='-0.0000236632' />
  <node id='1057' version='1' lat='0.00011482521' lon='-0.0000026678' />
  <node id='1058' version='1' lat='0.00011499191' lon='0.0000183276' />
  <node id='1059' version='1' lat='0.00011515861' lon='0.000039323' />
  <node id='1060' version='1' lat='0.00011532531' lon='0.00006031841' />
  <node id='1061' version='1' lat='0.000115492' lon='0.00008131381' />
  <node id='1062' version='1' lat='0.0001156587' lon='0.00010230922' />
  <node id='1063' version='1' lat='0.0001158254' lon='0.00012330462' />
  <node id='1065' version='1' lat='0.00004774254' lon='-0.0001067676' />
  <node id='1066' version='1' lat='0.00004762968' lon='-0.0000856911' />
  <node id='1067' version='1' lat='0.00004751683' lon='-0.00006461461' />
  <node id='1068' version='1' lat='0.00004740398' lon='-0.00004353812' />
  <node id='1069' version='1' lat='0.00004729113' lon='-0.00002246163' />
  <node id='1070' version='1' lat='0.00004717828' lon='-0.00000138513' />
  <node id='1071' version='1' lat='0.00004706543' lon='0.00001969136' />
  <node id='1072' version='1' lat='0.00004695257' lon='0.00004076786' />
  <node id='1073' version='1' lat='0.00004683972' lon='0.00006184435' />
  <node id='1074' version='1' lat='0.00004672686' lon='0.00008292085' />
  <node id='1075' version='1' lat='0.00004661402' lon='0.00010399734' />
  <node id='1076' version='1' lat='0.00004650117' lon='0.00012507384' />
  <node id='1078' version='1' lat='0.00004111993' lon='0.00011798189' />
  <node id='1079' version='1' lat='0.00006266181' lon='0.00011680721' />
  <node id='1080' version='1' lat='0.00008420367' lon='0.00011563254' />
  <node id='1081' version='1' lat='0.00010574554' lon='0.00011445786' />
  <node id='1082' version='1' lat='0.00012728742' lon='0.00011328319' />
  <node id='1083' version='1' lat='0.00014882928' lon='0.00011210851' />
  <node id='1084' version='1' lat='0.00017037115' lon='0.00011093383' />
  <node id='1085' version='1' lat='0.00019191303' lon='0.00010975915' />
  <node id='1086' version='1' lat='0.00021345489' lon='0.00010858448' />
  <node id='1087' version='1' lat='0.00023499676' lon='0.0001074098' />
  <node id='1088' version='1' lat='0.00025653863' lon='0.00010623512' />
  <node id='1089' version='1' lat='0.0002780805' lon='0.00010506044' />
  <node id='1091' version='1' lat='0.00004086039' lon='0.00004936433' />
  <node id='1092' version='1' lat='0.00006244344' lon='0.0000487556' />
  <node id='1093' version='1' lat='0.00008402648' lon='0.00004814688' />
  <node id='1094' version='1' lat='0.00010560953' lon='0.00004753814' />
  <node id='1095' version='1' lat='0.00012719258' lon='0.00004692941' />
  <node id='1096' version='1' lat='0.00014877563' lon='0.00004632067' />
  <node id='1097' version='1' lat='0.00017035867' lon='0.00004571195' />
  <node id='1098' version='1' lat='0.00019194171' lon='0.00004510321' />
  <node id='1099' version='1' lat='0.00021352476' lon='0.00004449448' />
  <node id='1100' version='1' lat='0.0002351078' lon='0.00004388574' />
  <node id='1101' version='1' lat='0.00025669085' lon='0.000043277' />
  <node id='1102' version='1' lat='0.00027827389' lon='0.00004266827' />
  <node id='1104' version='1' lat='0.00004074829' lon='0.00002465119' />
  <node id='1105' version='1' lat='0.00006230712' lon='0.00002365057' />
  <node id='1106' version='1' lat='0.00008386594' lon='0.00002264995' />
  <node id='1107' version='1' lat='0.00010542477' lon='0.00002164933' />
  <node id='1108' version='1' lat='0.00012698359' lon='0.00002064871' />
  <node id='1109' version='1' lat='0.00014854241' lon='0.00001964809' />
  <node id='1110' version='1' lat='0.00017010124' lon='0.00001864747' />
  <node id='1111' version='1' lat='0.00019166006' lon='0.00001764684' />
  <node id='1112' version='1' lat='0.00021321889' lon='0.00001664623' />
  <node id='1113' version='1' lat='0.00023477772' lon='0.0000156456' />
  <node id='1114' version='1' lat='0.00025633654' lon='0.00001464498' />
  <node id='1115' version='1' lat='0.00027789537' lon='0.00001364436' />
  <node id='1117' version='1' lat='0.00027784072' lon='-0.00001290103' />
  <node id='1118' version='1' lat='0.0002562787' lon='-0.00001183111' />
  <node id='1119' version='1' lat='0.00023471669' lon='-0.00001076119' />
  <node id='1120' version='1' lat='0.00021315467' lon='-0.00000969126' />
  <node id='1121' version='1' lat='0.00019159266' lon='-0.00000862135' />
  <node id='1122' version='1' lat='0.00017003064' lon='-0.00000755143' />
  <node id='1123' version='1' lat='0.00014846863' lon='-0.00000648151' />
  <node id='1124' version='1' lat='0.00012690662' lon='-0.00000541159' />
  <node id='1125' version='1' lat='0.00010534461' lon='-0.00000434167' />
  <node id='1126' version='1' lat='0.0000837826' lon='-0.00000327176' />
  <node id='1127' version='1' lat='0.00006222057' lon='-0.00000220183' />
  <node id='1128' version='1' lat='0.00004065856' lon='-0.00000113192' />
  <node id='1130' version='1' lat='0.00027775427' lon='-0.00003876149' />
  <node id='1131' version='1' lat='0.00025615514' lon='-0.00003803249' />
  <node id='1132' version='1' lat='0.00023455603' lon='-0.00003730349' />
  <node id='1133' version='1' lat='0.00021295691' lon='-0.00003657449' />
  <node id='1134' version='1' lat='0.00019135779' lon='-0.00003584549' />
  <node id='1135' version='1' lat='0.00016975867' lon='-0.0000351165' />
  <node id='1136' version='1' lat='0.00014815955' lon='-0.0000343875' />
  <node id='1137' version='1' lat='0.00012656043' lon='-0.00003365851' />
  <node id='1138' version='1' lat='0.00010496131' lon='-0.00003292951' />
  <node id='1139' version='1' lat='0.00008336219' lon='-0.00003220051' />
  <node id='1140' version='1' lat='0.00006176307' lon='-0.00003147152' />
  <node id='1141' version='1' lat='0.00004016395' lon='-0.00003074252' />
  <node id='1143' version='1' lat='0.00027764979' lon='-0.00010364669' />
  <node id='1144' version='1' lat='0.00025607094' lon='-0.00010326078' />
  <node id='1145' version='1' lat='0.00023449209' lon='-0.00010287487' />
  <node id='1146' version='1' lat='0.00021291324' lon='-0.00010248897' />
  <node id='1147' version='1' lat='0.0001913344' lon='-0.00010210307' />
  <node id='1148' version='1' lat='0.00016975555' lon='-0.00010171716' />
  <node id='1149' version='1' lat='0.0001481767' lon='-0.00010133125' />
  <node id='1150' version='1' lat='0.00012659785' lon='-0.00010094535' />
  <node id='1151' version='1' lat='0.000105019' lon='-0.00010055945' />
  <node id='1152' version='1' lat='0.00008344016' lon='-0.00010017355' />
  <node id='1153' version='1' lat='0.00006186131' lon='-0.00009978765' />
  <node id='1154' version='1' lat='0.00004028246' lon='-0.00009940174' />
  <node id='1156' version='1' lat='0.00013900016' lon='-0.00010527512' />
  <node id='1157' version='1' lat='0.00014334493' lon='-0.00008199508' />
  <node id='1158' version='1' lat='0.00015098091' lon='-0.00005956618' />
  <node id='1159' version='1' lat='0.00016175264' lon='-0.00003844501' />
  <node id='1160' version='1' lat='0.00017544085' lon='-0.00001906155' />
  <node id='1161' version='1' lat='0.00019176687' lon='-0.00000181037' />
  <node id='1162' version='1' lat='0.00021039836' lon='0.00001295733' />
  <node id='1163' version='1' lat='0.00023095605' lon='0.00002494094' />
  <node id='1164' version='1' lat='0.00025302142' lon='0.00003389648' />
  <node id='1165' version='1' lat='0.0002761453' lon='0.00003964167' />
  <node id='1167' version='1' lat='0.00016622204' lon='-0.0001076766' />
  <node id='1168' version='1' lat='0.00017064219' lon='-0.00008651948' />
  <node id='1169' version='1' lat='0.00017833992' lon='-0.00006630967' />
  <node id='1170' version='1' lat='0.00018912571' lon='-0.00004754482' />
  <node id='1171' version='1' lat='0.00020273395' lon='-0.00003068695' />
  <node id='1172' version='1' lat='0.00021882957' lon='-0.00001615118' />
  <node id='1173' version='1' lat='0.00023701626' lon='-0.00000429544' />
  <node id='1174' version='1' lat='0.00025684618' lon='0.00000458837' />
  <node id='1175' version='1' lat='0.00027783106' lon='0.00001028149' />
  <node id='1177' version='1' lat='0.00017173344' lon='0.00012063773' />
  <node id='1178' version='1' lat='0.00016827711' lon='0.00009756701' />
  <node id='1179' version='1' lat='0.00016155054' lon='0.0000752197' />
  <node id='1180' version='1' lat='0.00015169065' lon='0.00005405074' />
  <node id='1181' version='1' lat='0.00013889815' lon='0.00003449106' />
  <node id='1182' version='1' lat='0.00012343348' lon='0.00001693885' />
  <node id='1183' version='1' lat='0.00010561144' lon='0.00000175142' />
  <node id='1184' version='1' lat='0.00008579483' lon='-0.00001076207' />
  <node id='1185' version='1' lat='0.00006438708' lon='-0.00002034687' />
  <node id='1186' version='1' lat='0.00004182397' lon='-0.00002680787' />
  <node id='1188' version='1' lat='0.00014513819' lon='0.00012041643' />
  <node id='1189' version='1' lat='0.00014057178' lon='0.0000972982' />
  <node id='1190' version='1' lat='0.00013203326' lon='0.00007531882' />
  <node id='1191' version='1' lat='0.00011978205' lon='0.00005514613' />
  <node id='1192' version='1' lat='0.00010419041' lon='0.00003739307' />
  <node id='1193' version='1' lat='0.00008573208' lon='0.00002259904' />
  <node id='1194' version='1' lat='0.0000649679' lon='0.00001121358' />
  <node id='1195' version='1' lat='0.0000425288' lon='0.00000358261' />
  <node id='1197' version='1' lat='0.0002769451' lon='0.00001271104' />
  <node id='1198' version='1' lat='0.00025472373' lon='0.00001627515' />
  <node id='1199' version='1' lat='0.00023333725' lon='0.0000232483' />
  <node id='1200' version='1' lat='0.00021331227' lon='0.00003345879' />
  <node id='1201' version='1' lat='0.00019514187' lon='0.00004665518' />
  <node id='1202' version='1' lat='0.00017927345' lon='0.00006251256' />
  <node id='1203' version='1' lat='0.00016609777' lon='0.00008064046' />
  <node id='1204' version='1' lat='0.00015593923' lon='0.00010059251' />
  <node id='1205' version='1' lat='0.00014904799' lon='0.00012187742' />
  <node id='1207' version='1' lat='0.00027489114' lon='-0.00001393979' />
  <node id='1208' version='1' lat='0.00025063349' lon='-0.00001044394' />
  <node id='1209' version='1' lat='0.00022712363' lon='-0.00000355455' />
  <node id='1210' version='1' lat='0.00020484012' lon='0.00000658812' />
  <node id='1211' version='1' lat='0.00018423662' lon='0.00001977758' />
  <node id='1212' version='1' lat='0.00016573254' lon='0.00003574535' />
  <node id='1213' version='1' lat='0.00014970456' lon='0.00005416638' />
  <node id='1214' version='1' lat='0.00013647898' lon='0.00007466565' />
  <node id='1215' version='1' lat='0.00012632502' lon='0.00009682586' />
  <node id='1216' version='1' lat='0.0001194494' lon='0.00012019591' />
  <node id='1218' version='1' lat='0.0000407957' lon='-0.00000050574' />
  <node id='1219' version='1' lat='0.00006215781' lon='-0.00000431577' />
  <node id='1220' version='1' lat='0.00008265689' lon='-0.00001139831' />
  <node id='1221' version='1' lat='0.00010178817' lon='-0.00002157894' />
  <node id='1222' version='1' lat='0.00011908057' lon='-0.00003460698' />
  <node id='1223' version='1' lat='0.00013410831' lon='-0.00005016166' />
  <node id='1224' version='1' lat='0.00014650134' lon='-0.00006785993' />
  <node id='1225' version='1' lat='0.00015595451' lon='-0.00008726604' />
  <node id='1226' version='1' lat='0.00016223506' lon='-0.00010790213' />
  <node id='1228' version='1' lat='0.00004290085' lon='0.00002520502' />
  <node id='1229' version='1' lat='0.00006630686' lon='0.00002141089' />
  <node id='1230' version='1' lat='0.00008893104' lon='0.00001434665' />
  <node id='1231' version='1' lat='0.00011031282' lon='0.00000415611' />
  <node id='1232' version='1' lat='0.00013001691' lon='-0.00000895327' />
  <node id='1233' version='1' lat='0.00014764222' lon='-0.00002471464' />
  <node id='1234' version='1' lat='0.00016282993' lon='-0.00004280712' />
  <node id='1235' version='1' lat='0.00017527087' lon='-0.00006286242' />
  <node id='1236' version='1' lat='0.00018471177' lon='-0.00008447227' />
  <node id='1237' version='1' lat='0.00019096046' lon='-0.00010719674' />
  <node id='1239' version='1' lat='0.00011183465' lon='-0.00010708902' />
  <node id='1240' version='1' lat='0.00010506624' lon='-0.00008651811' />
  <node id='1241' version='1' lat='0.00009385923' lon='-0.00006795897' />
  <node id='1242' version='1' lat='0.00007877556' lon='-0.00005234226' />
  <node id='1243' version='1' lat='0.00006057161' lon='-0.00004045104' />
  <node id='1244' version='1' lat='0.0000401602' lon='-0.00003288162' />
  <node id='1246' version='1' lat='0.00004062543' lon='0.00005216623' />
  <node id='1247' version='1' lat='0.00006094696' lon='0.00005902299' />
  <node id='1248' version='1' lat='0.00007922293' lon='0.00007019954' />
  <node id='1249' version='1' lat='0.0000945369' lon='0.00008513544' />
  <node id='1250' version='1' lat='0.00010612097' lon='0.00010308171' />
  <node id='1251' version='1' lat='0.00011339428' lon='0.00012313849' />
  <node id='1253' version='1' lat='0.00027724466' lon='-0.00004042407' />
  <node id='1254' version='1' lat='0.00025589938' lon='-0.00004622098' />
  <node id='1255' version='1' lat='0.00023638791' lon='-0.00005659051' />
  <node id='1256' version='1' lat='0.00021968861' lon='-0.0000710127' />
  <node id='1257' version='1' lat='0.00020663887' lon='-0.00008876437' />
  <node id='1258' version='1' lat='0.00019789305' lon='-0.00010895537' />
  <node id='1260' version='1' lat='0.00019930134' lon='0.00012083234' />
  <node id='1261' version='1' lat='0.00020701432' lon='0.00009931192' />
  <node id='1262' version='1' lat='0.00021935493' lon='0.00008003586' />
  <node id='1263' version='1' lat='0.00023570436' lon='0.00006397075' />
  <node id='1264' version='1' lat='0.0002552428' lon='0.00005192217' />
  <node id='1265' version='1' lat='0.0002769905' lon='0.00004449427' />
  <way id='-105445' action='modify'>
    <nd ref='-138657' />
    <nd ref='-138634' />
    <nd ref='-138633' />
    <nd ref='-138635' />
    <nd ref='-138650' />
    <tag k='type' v='zebra_marking' />
  </way>
  <way id='-105446' action='modify'>
    <nd ref='-138460' />
    <nd ref='-138459' />
    <tag k='type' v='zebra_marking' />
  </way>
  <way id='-105447' action='modify'>
    <nd ref='-138579' />
    <nd ref='-138643' />
    <nd ref='-138642' />
    <nd ref='-138641' />
    <nd ref='-138646' />
    <tag k='type' v='zebra_marking' />
  </way>
  <way id='-105448'>
    <nd ref='-138462' />
    <nd ref='-138539' />
    <nd ref='-138541' />
    <nd ref='-138575' />
    <tag k='subtype' v='solid' />
    <tag k='type' v='stop_line' />
  </way>
  <way id='-105449' action='modify'>
    <nd ref='-138644' />
    <nd ref='-138630' />
    <nd ref='-138631' />
    <nd ref='-138632' />
    <nd ref='-138647' />
    <tag k='type' v='zebra_marking' />
  </way>
  <way id='-105450'>
    <nd ref='-138464' />
    <nd ref='-138545' />
    <nd ref='-138543' />
    <nd ref='-138648' />
    <tag k='subtype' v='solid' />
    <tag k='type' v='stop_line' />
  </way>
  <way id='-105451'>
    <nd ref='-138636' />
    <nd ref='-138491' />
    <nd ref='-138489' />
    <nd ref='-138466' />
    <tag k='subtype' v='solid' />
    <tag k='type' v='stop_line' />
  </way>
  <way id='-105452'>
    <nd ref='-138649' />
    <nd ref='-138607' />
    <nd ref='-138474' />
    <nd ref='-138547' />
    <nd ref='-138548' />
    <nd ref='-138549' />
    <nd ref='-138550' />
    <nd ref='-138551' />
    <nd ref='-138552' />
    <nd ref='-138553' />
    <nd ref='-138554' />
    <nd ref='-138555' />
    <nd ref='-138556' />
    <nd ref='-138557' />
    <nd ref='-138558' />
    <nd ref='-138559' />
    <nd ref='-138560' />
    <nd ref='-138561' />
    <nd ref='-138562' />
    <nd ref='-138621' />
    <nd ref='-138563' />
    <tag k='subtype' v='low' />
    <tag k='type' v='curbstone' />
  </way>
  <way id='-105453'>
    <nd ref='-138565' />
    <nd ref='-138564' />
    <nd ref='-138508' />
    <nd ref='-138507' />
    <nd ref='-138509' />
    <nd ref='-138506' />
    <nd ref='-138505' />
    <nd ref='-138504' />
    <nd ref='-138503' />
    <nd ref='-138502' />
    <nd ref='-138501' />
    <nd ref='-138500' />
    <nd ref='-138499' />
    <nd ref='-138498' />
    <nd ref='-138497' />
    <nd ref='-138496' />
    <nd ref='-138475' />
    <tag k='subtype' v='low' />
    <tag k='type' v='curbstone' />
  </way>
  <way id='-105454'>
    <nd ref='-138644' />
    <nd ref='-138483' />
    <nd ref='-138484' />
    <nd ref='-138485' />
    <nd ref='-138486' />
    <nd ref='-138487' />
    <nd ref='-138613' />
    <nd ref='-138614' />
    <nd ref='-138615' />
    <nd ref='-138616' />
    <nd ref='-138617' />
    <nd ref='-138618' />
    <nd ref='-138619' />
    <nd ref='-138620' />
    <tag k='subtype' v='low' />
    <tag k='type' v='curbstone' />
  </way>
  <way id='-105455'>
    <nd ref='-138488' />
    <nd ref='-138489' />
    <tag k='subtype' v='solid' />
    <tag k='type' v='line_thin' />
  </way>
  <way id='-105456'>
    <nd ref='-138490' />
    <nd ref='-138491' />
    <tag k='subtype' v='solid' />
    <tag k='type' v='line_thin' />
  </way>
  <way id='-105457' action='modify'>
    <nd ref='-138492' />
    <nd ref='-138639' />
    <tag k='subtype' v='solid' />
    <tag k='type' v='line_thin' />
  </way>
  <way id='-105458' action='modify'>
    <nd ref='-138494' />
    <nd ref='-138638' />
    <tag k='subtype' v='solid' />
    <tag k='type' v='line_thin' />
  </way>
  <way id='-105459'>
    <nd ref='-138650' />
    <nd ref='-138516' />
    <nd ref='-138651' />
    <nd ref='-138517' />
    <nd ref='-138518' />
    <nd ref='-138519' />
    <nd ref='-138520' />
    <nd ref='-138521' />
    <nd ref='-138522' />
    <nd ref='-138523' />
    <nd ref='-138524' />
    <nd ref='-138525' />
    <nd ref='-138526' />
    <nd ref='-138527' />
    <tag k='subtype' v='low' />
    <tag k='type' v='curbstone' />
  </way>
  <way id='-105460' action='modify'>
    <nd ref='-138539' />
    <nd ref='-138631' />
    <tag k='subtype' v='solid' />
    <tag k='type' v='line_thin' />
  </way>
  <way id='-105461' action='modify'>
    <nd ref='-138541' />
    <nd ref='-138632' />
    <tag k='subtype' v='solid' />
    <tag k='type' v='line_thin' />
  </way>
  <way id='-105462' action='modify'>
    <nd ref='-138543' />
    <nd ref='-138641' />
    <tag k='subtype' v='solid' />
    <tag k='type' v='line_thin' />
  </way>
  <way id='-105463' action='modify'>
    <nd ref='-138545' />
    <nd ref='-138642' />
    <tag k='subtype' v='solid' />
    <tag k='type' v='line_thin' />
  </way>
  <way id='-105464' action='modify'>
    <nd ref='-138579' />
    <nd ref='-138580' />
    <nd ref='-138652' />
    <nd ref='-138581' />
    <nd ref='-138582' />
    <nd ref='-138583' />
    <nd ref='-138584' />
    <nd ref='-138585' />
    <nd ref='-138586' />
    <nd ref='-138587' />
    <nd ref='-138588' />
    <nd ref='-138589' />
    <nd ref='-138590' />
    <nd ref='-138591' />
    <nd ref='-138592' />
    <nd ref='-138593' />
    <nd ref='-138594' />
    <nd ref='-138595' />
    <nd ref='-138596' />
    <nd ref='-138597' />
    <nd ref='-138598' />
    <tag k='subtype' v='low' />
    <tag k='type' v='curbstone' />
  </way>
  <way id='-105465'>
    <nd ref='-138465' />
    <nd ref='-138464' />
    <tag k='subtype' v='solid' />
    <tag k='type' v='line_thick' />
  </way>
  <way id='-105466'>
    <nd ref='-138463' />
    <nd ref='-138462' />
    <tag k='subtype' v='solid' />
    <tag k='type' v='line_thick' />
  </way>
  <way id='-105467' action='modify'>
    <nd ref='-138467' />
    <nd ref='-138466' />
    <tag k='subtype' v='solid' />
    <tag k='type' v='line_thick' />
  </way>
  <way id='-105468'>
    <nd ref='-138475' />
    <nd ref='-138494' />
    <nd ref='-138492' />
    <nd ref='-138476' />
    <tag k='subtype' v='solid' />
    <tag k='type' v='stop_line' />
  </way>
  <way id='-105469' action='modify'>
    <nd ref='-138477' />
    <nd ref='-138476' />
    <tag k='subtype' v='solid' />
    <tag k='type' v='line_thick' />
  </way>
  <way id='-105470' action='modify'>
    <nd ref='-138637' />
    <nd ref='-138638' />
    <nd ref='-138639' />
    <nd ref='-138640' />
    <nd ref='-138649' />
    <tag k='type' v='zebra_marking' />
  </way>
  <way id='-105471'>
    <nd ref='-138622' />
    <nd ref='-138623' />
    <tag k='type' v='virtual' />
  </way>
  <way id='-105472'>
    <nd ref='-138624' />
    <nd ref='-138625' />
    <tag k='type' v='virtual' />
  </way>
  <way id='-105473'>
    <nd ref='-138626' />
    <nd ref='-138627' />
    <tag k='type' v='virtual' />
  </way>
  <way id='-105474'>
    <nd ref='-138628' />
    <nd ref='-138629' />
    <tag k='type' v='virtual' />
  </way>
  <way id='-105475'>
    <nd ref='-138462' />
    <nd ref='-138630' />
  </way>
  <way id='-105476' action='modify'>
    <nd ref='-138540' />
    <nd ref='-138539' />
    <tag k='subtype' v='solid' />
    <tag k='type' v='line_thin' />
  </way>
  <way id='-105477' action='modify'>
    <nd ref='-138542' />
    <nd ref='-138541' />
    <tag k='subtype' v='solid' />
    <tag k='type' v='line_thin' />
  </way>
  <way id='-105478'>
    <nd ref='-138489' />
    <nd ref='-138633' />
    <tag k='subtype' v='solid' />
    <tag k='type' v='line_thin' />
  </way>
  <way id='-105479'>
    <nd ref='-138491' />
    <nd ref='-138634' />
    <tag k='subtype' v='solid' />
    <tag k='type' v='line_thin' />
  </way>
  <way id='-105480'>
    <nd ref='-138466' />
    <nd ref='-138635' />
  </way>
  <way id='-105481'>
    <nd ref='-138566' />
    <nd ref='-138567' />
    <nd ref='-138568' />
    <nd ref='-138569' />
    <nd ref='-138570' />
    <nd ref='-138571' />
    <nd ref='-138572' />
    <nd ref='-138573' />
    <nd ref='-138574' />
    <nd ref='-138575' />
    <tag k='subtype' v='low' />
    <tag k='type' v='curbstone' />
  </way>
  <way id='-105482'>
    <nd ref='-138538' />
    <nd ref='-138537' />
    <nd ref='-138536' />
    <nd ref='-138535' />
    <nd ref='-138534' />
    <nd ref='-138533' />
    <nd ref='-138532' />
    <nd ref='-138531' />
    <nd ref='-138530' />
    <nd ref='-138529' />
    <nd ref='-138478' />
    <nd ref='-138528' />
    <nd ref='-138479' />
    <nd ref='-138480' />
    <nd ref='-138636' />
    <tag k='subtype' v='low' />
    <tag k='type' v='curbstone' />
  </way>
  <way id='-105483'>
    <nd ref='-138476' />
    <nd ref='-138640' />
  </way>
  <way id='-105484'>
    <nd ref='-138464' />
    <nd ref='-138643' />
  </way>
  <way id='-105485'>
    <nd ref='-138636' />
    <nd ref='-138481' />
    <nd ref='-138657' />
    <tag k='subtype' v='low' />
    <tag k='type' v='curbstone' />
  </way>
  <way id='-105486' action='modify'>
    <nd ref='-138546' />
    <nd ref='-138545' />
    <tag k='subtype' v='solid' />
    <tag k='type' v='line_thin' />
  </way>
  <way id='-105487' action='modify'>
    <nd ref='-138544' />
    <nd ref='-138543' />
    <tag k='subtype' v='solid' />
    <tag k='type' v='line_thin' />
  </way>
  <way id='-105488' action='modify'>
    <nd ref='-138493' />
    <nd ref='-138492' />
    <tag k='subtype' v='solid' />
    <tag k='type' v='line_thin' />
  </way>
  <way id='-105489' action='modify'>
    <nd ref='-138495' />
    <nd ref='-138494' />
    <tag k='subtype' v='solid' />
    <tag k='type' v='line_thin' />
  </way>
  <way id='-105490'>
    <nd ref='-138575' />
    <nd ref='-138576' />
    <nd ref='-138647' />
    <tag k='subtype' v='low' />
    <tag k='type' v='curbstone' />
  </way>
  <way id='-105491'>
    <nd ref='-138475' />
    <nd ref='-138510' />
    <nd ref='-138511' />
    <nd ref='-138637' />
    <tag k='subtype' v='low' />
    <tag k='type' v='curbstone' />
  </way>
  <way id='-105492'>
    <nd ref='-138606' />
    <nd ref='-138605' />
    <nd ref='-138604' />
    <nd ref='-138603' />
    <nd ref='-138602' />
    <nd ref='-138601' />
    <nd ref='-138600' />
    <nd ref='-138468' />
    <nd ref='-138612' />
    <nd ref='-138469' />
    <nd ref='-138470' />
    <nd ref='-138611' />
    <nd ref='-138610' />
    <nd ref='-138648' />
    <tag k='subtype' v='low' />
    <tag k='type' v='curbstone' />
  </way>
  <way id='-105493'>
    <nd ref='-138648' />
    <nd ref='-138471' />
    <nd ref='-138609' />
    <nd ref='-138646' />
    <tag k='subtype' v='low' />
    <tag k='type' v='curbstone' />
  </way>
  <way id='-105494'>
    <nd ref='-138637' />
    <nd ref='-138512' />
    <nd ref='-138513' />
    <nd ref='-138514' />
    <nd ref='-138515' />
    <nd ref='-138650' />
    <tag k='name' v='R2_5:R3_0' />
    <tag k='subtype' v='low' />
    <tag k='type' v='curbstone' />
  </way>
  <way id='-105495'>
    <nd ref='-138647' />
    <nd ref='-138577' />
    <nd ref='-138578' />
    <nd ref='-138579' />
    <tag k='name' v='R4_5:R1_0' />
    <tag k='subtype' v='low' />
    <tag k='type' v='curbstone' />
  </way>
  <way id='-105496'>
    <nd ref='-138643' />
    <nd ref='-138653' />
    <tag k='type' v='virtual' />
  </way>
  <way id='-105497'>
    <nd ref='-138640' />
    <nd ref='-138654' />
    <tag k='type' v='virtual' />
  </way>
  <way id='-105498'>
    <nd ref='-138635' />
    <nd ref='-138655' />
    <tag k='type' v='virtual' />
  </way>
  <way id='-105499'>
    <nd ref='-138630' />
    <nd ref='-138656' />
    <tag k='type' v='virtual' />
  </way>
  <way id='-105500'>
    <nd ref='-138657' />
    <nd ref='-138482' />
    <nd ref='-138644' />
    <tag k='name' v='R3_5:R4_0' />
    <tag k='subtype' v='low' />
    <tag k='type' v='curbstone' />
  </way>
  <way id='-105501'>
    <nd ref='-138646' />
    <nd ref='-138645' />
    <nd ref='-138608' />
    <nd ref='-138472' />
    <nd ref='-138473' />
    <nd ref='-138649' />
    <tag k='name' v='R1_5:R2_0' />
    <tag k='subtype' v='low' />
    <tag k='type' v='curbstone' />
  </way>
  <way id='-105502' action='modify'>
    <nd ref='-138458' />
    <nd ref='-138454' />
    <tag k='type' v='zebra_marking' />
  </way>
  <way id='-105503' action='modify'>
    <nd ref='-138461' />
    <nd ref='-138455' />
    <tag k='type' v='zebra_marking' />
  </way>
  <way id='-105504' action='modify'>
    <nd ref='-138456' />
    <nd ref='-138457' />
    <tag k='type' v='zebra_marking' />
  </way>
  <way id='-105505'>
    <nd ref='-138658' />
    <nd ref='-138659' />
    <tag k='subtype' v='red_yellow_green' />
    <tag k='type' v='traffic_light' />
  </way>
  <way id='-105506'>
    <nd ref='-138660' />
    <nd ref='-138661' />
    <tag k='subtype' v='red_yellow_green' />
    <tag k='type' v='traffic_light' />
  </way>
  <way id='-105507'>
    <nd ref='-138662' />
    <nd ref='-138663' />
    <tag k='subtype' v='red_yellow_green' />
    <tag k='type' v='traffic_light' />
  </way>
  <way id='-105508'>
    <nd ref='-138664' />
    <nd ref='-138665' />
    <tag k='subtype' v='red_yellow_green' />
    <tag k='type' v='traffic_light' />
  </way>
  <way id='-105509' action='modify'>
    <nd ref='-138666' />
    <nd ref='-138667' />
    <nd ref='-138565' />
    <nd ref='-138508' />
    <nd ref='-138502' />
    <nd ref='-138475' />
    <nd ref='-138512' />
    <nd ref='-138516' />
    <nd ref='-138517' />
    <nd ref='-138519' />
    <nd ref='-138521' />
    <nd ref='-138527' />
    <nd ref='-138538' />
    <nd ref='-138533' />
    <nd ref='-138530' />
    <nd ref='-138528' />
    <nd ref='-138636' />
    <nd ref='-138482' />
    <nd ref='-138485' />
    <nd ref='-138487' />
    <nd ref='-138616' />
    <nd ref='-138620' />
    <nd ref='-138668' />
    <nd ref='-138569' />
    <nd ref='-138570' />
    <nd ref='-138572' />
    <nd ref='-138574' />
    <nd ref='-138576' />
    <nd ref='-138578' />
    <nd ref='-138581' />
    <nd ref='-138583' />
    <nd ref='-138589' />
    <nd ref='-138595' />
    <nd ref='-138598' />
    <nd ref='-138606' />
    <nd ref='-138603' />
    <nd ref='-138601' />
    <nd ref='-138612' />
    <nd ref='-138470' />
    <nd ref='-138608' />
    <nd ref='-138472' />
    <nd ref='-138547' />
    <nd ref='-138550' />
    <nd ref='-138555' />
    <nd ref='-138558' />
    <nd ref='-138561' />
    <nd ref='-138666' />
    <tag k='area' v='yes' />
    <tag k='subtype' v='low' />
    <tag k='type' v='curbstone' />
  </way>
  <way id='1012' action='modify' version='1'>
    <nd ref='-138646' />
    <nd ref='1000' />
    <nd ref='1001' />
    <nd ref='1002' />
    <nd ref='1003' />
    <nd ref='1004' />
    <nd ref='1005' />
    <nd ref='1006' />
    <nd ref='1007' />
    <nd ref='1008' />
    <nd ref='1009' />
    <nd ref='1010' />
    <nd ref='1011' />
    <nd ref='-138650' />
    <tag k='link' v='R1_5:R3_0' />
    <tag k='type' v='zebra_marking' />
  </way>
  <way id='1025' version='1'>
    <nd ref='-138641' />
    <nd ref='1013' />
    <nd ref='1014' />
    <nd ref='1015' />
    <nd ref='1016' />
    <nd ref='1017' />
    <nd ref='1018' />
    <nd ref='1019' />
    <nd ref='1020' />
    <nd ref='1021' />
    <nd ref='1022' />
    <nd ref='1023' />
    <nd ref='1024' />
    <nd ref='-138626' />
    <tag k='link' v='R1_4:R3_1' />
    <tag k='type' v='virtual' />
  </way>
  <way id='1038' version='1'>
    <nd ref='-138642' />
    <nd ref='1026' />
    <nd ref='1027' />
    <nd ref='1028' />
    <nd ref='1029' />
    <nd ref='1030' />
    <nd ref='1031' />
    <nd ref='1032' />
    <nd ref='1033' />
    <nd ref='1034' />
    <nd ref='1035' />
    <nd ref='1036' />
    <nd ref='1037' />
    <nd ref='-138635' />
    <tag k='link' v='R1_3:R3_2' />
    <tag k='type' v='virtual' />
  </way>
  <way id='1051' version='1'>
    <nd ref='-138633' />
    <nd ref='1039' />
    <nd ref='1040' />
    <nd ref='1041' />
    <nd ref='1042' />
    <nd ref='1043' />
    <nd ref='1044' />
    <nd ref='1045' />
    <nd ref='1046' />
    <nd ref='1047' />
    <nd ref='1048' />
    <nd ref='1049' />
    <nd ref='1050' />
    <nd ref='-138643' />
    <tag k='link' v='R3_3:R1_2' />
    <tag k='type' v='virtual' />
  </way>
  <way id='1064' version='1'>
    <nd ref='-138634' />
    <nd ref='1052' />
    <nd ref='1053' />
    <nd ref='1054' />
    <nd ref='1055' />
    <nd ref='1056' />
    <nd ref='1057' />
    <nd ref='1058' />
    <nd ref='1059' />
    <nd ref='1060' />
    <nd ref='1061' />
    <nd ref='1062' />
    <nd ref='1063' />
    <nd ref='-138624' />
    <tag k='link' v='R3_4:R1_1' />
    <tag k='type' v='virtual' />
  </way>
  <way id='1077' action='modify' version='1'>
    <nd ref='-138657' />
    <nd ref='1065' />
    <nd ref='1066' />
    <nd ref='1067' />
    <nd ref='1068' />
    <nd ref='1069' />
    <nd ref='1070' />
    <nd ref='1071' />
    <nd ref='1072' />
    <nd ref='1073' />
    <nd ref='1074' />
    <nd ref='1075' />
    <nd ref='1076' />
    <nd ref='-138579' />
    <tag k='link' v='R3_5:R1_0' />
    <tag k='type' v='zebra_marking' />
  </way>
  <way id='1090' action='modify' version='1'>
    <nd ref='-138647' />
    <nd ref='1078' />
    <nd ref='1079' />
    <nd ref='1080' />
    <nd ref='1081' />
    <nd ref='1082' />
    <nd ref='1083' />
    <nd ref='1084' />
    <nd ref='1085' />
    <nd ref='1086' />
    <nd ref='1087' />
    <nd ref='1088' />
    <nd ref='1089' />
    <nd ref='-138649' />
    <tag k='link' v='R4_5:R2_0' />
    <tag k='type' v='zebra_marking' />
  </way>
  <way id='1103' version='1'>
    <nd ref='-138632' />
    <nd ref='1091' />
    <nd ref='1092' />
    <nd ref='1093' />
    <nd ref='1094' />
    <nd ref='1095' />
    <nd ref='1096' />
    <nd ref='1097' />
    <nd ref='1098' />
    <nd ref='1099' />
    <nd ref='1100' />
    <nd ref='1101' />
    <nd ref='1102' />
    <nd ref='-138622' />
    <tag k='link' v='R4_4:R2_1' />
    <tag k='type' v='virtual' />
  </way>
  <way id='1116' version='1'>
    <nd ref='-138631' />
    <nd ref='1104' />
    <nd ref='1105' />
    <nd ref='1106' />
    <nd ref='1107' />
    <nd ref='1108' />
    <nd ref='1109' />
    <nd ref='1110' />
    <nd ref='1111' />
    <nd ref='1112' />
    <nd ref='1113' />
    <nd ref='1114' />
    <nd ref='1115' />
    <nd ref='-138640' />
    <tag k='link' v='R4_3:R2_2' />
    <tag k='type' v='virtual' />
  </way>
  <way id='1129' version='1'>
    <nd ref='-138639' />
    <nd ref='1117' />
    <nd ref='1118' />
    <nd ref='1119' />
    <nd ref='1120' />
    <nd ref='1121' />
    <nd ref='1122' />
    <nd ref='1123' />
    <nd ref='1124' />
    <nd ref='1125' />
    <nd ref='1126' />
    <nd ref='1127' />
    <nd ref='1128' />
    <nd ref='-138630' />
    <tag k='link' v='R2_3:R4_2' />
    <tag k='type' v='virtual' />
  </way>
  <way id='1142' version='1'>
    <nd ref='-138638' />
    <nd ref='1130' />
    <nd ref='1131' />
    <nd ref='1132' />
    <nd ref='1133' />
    <nd ref='1134' />
    <nd ref='1135' />
    <nd ref='1136' />
    <nd ref='1137' />
    <nd ref='1138' />
    <nd ref='1139' />
    <nd ref='1140' />
    <nd ref='1141' />
    <nd ref='-138628' />
    <tag k='link' v='R2_4:R4_1' />
    <tag k='type' v='virtual' />
  </way>
  <way id='1155' action='modify' version='1'>
    <nd ref='-138637' />
    <nd ref='1143' />
    <nd ref='1144' />
    <nd ref='1145' />
    <nd ref='1146' />
    <nd ref='1147' />
    <nd ref='1148' />
    <nd ref='1149' />
    <nd ref='1150' />
    <nd ref='1151' />
    <nd ref='1152' />
    <nd ref='1153' />
    <nd ref='1154' />
    <nd ref='-138644' />
    <tag k='link' v='R2_5:R4_0' />
    <tag k='type' v='zebra_marking' />
  </way>
  <way id='1166' version='1'>
    <nd ref='-138633' />
    <nd ref='1156' />
    <nd ref='1157' />
    <nd ref='1158' />
    <nd ref='1159' />
    <nd ref='1160' />
    <nd ref='1161' />
    <nd ref='1162' />
    <nd ref='1163' />
    <nd ref='1164' />
    <nd ref='1165' />
    <nd ref='-138622' />
    <tag k='link' v='R3_3:R2_1' />
    <tag k='type' v='virtual' />
  </way>
  <way id='1176' version='1'>
    <nd ref='-138635' />
    <nd ref='1167' />
    <nd ref='1168' />
    <nd ref='1169' />
    <nd ref='1170' />
    <nd ref='1171' />
    <nd ref='1172' />
    <nd ref='1173' />
    <nd ref='1174' />
    <nd ref='1175' />
    <nd ref='-138640' />
    <tag k='link' v='R3_2:R2_2' />
    <tag k='type' v='virtual' />
  </way>
  <way id='1187' version='1'>
    <nd ref='-138642' />
    <nd ref='1177' />
    <nd ref='1178' />
    <nd ref='1179' />
    <nd ref='1180' />
    <nd ref='1181' />
    <nd ref='1182' />
    <nd ref='1183' />
    <nd ref='1184' />
    <nd ref='1185' />
    <nd ref='1186' />
    <nd ref='-138628' />
    <tag k='link' v='R1_3:R4_1' />
    <tag k='type' v='virtual' />
  </way>
  <way id='1196' version='1'>
    <nd ref='-138643' />
    <nd ref='1188' />
    <nd ref='1189' />
    <nd ref='1190' />
    <nd ref='1191' />
    <nd ref='1192' />
    <nd ref='1193' />
    <nd ref='1194' />
    <nd ref='1195' />
    <nd ref='-138630' />
    <tag k='link' v='R1_2:R4_2' />
    <tag k='type' v='virtual' />
  </way>
  <way id='1206' version='1'>
    <nd ref='-138640' />
    <nd ref='1197' />
    <nd ref='1198' />
    <nd ref='1199' />
    <nd ref='1200' />
    <nd ref='1201' />
    <nd ref='1202' />
    <nd ref='1203' />
    <nd ref='1204' />
    <nd ref='1205' />
    <nd ref='-138643' />
    <tag k='link' v='R2_2:R1_2' />
    <tag k='type' v='virtual' />
  </way>
  <way id='1217' version='1'>
    <nd ref='-138639' />
    <nd ref='1207' />
    <nd ref='1208' />
    <nd ref='1209' />
    <nd ref='1210' />
    <nd ref='1211' />
    <nd ref='1212' />
    <nd ref='1213' />
    <nd ref='1214' />
    <nd ref='1215' />
    <nd ref='1216' />
    <nd ref='-138624' />
    <tag k='link' v='R2_3:R1_1' />
    <tag k='type' v='virtual' />
  </way>
  <way id='1227' version='1'>
    <nd ref='-138630' />
    <nd ref='1218' />
    <nd ref='1219' />
    <nd ref='1220' />
    <nd ref='1221' />
    <nd ref='1222' />
    <nd ref='1223' />
    <nd ref='1224' />
    <nd ref='1225' />
    <nd ref='1226' />
    <nd ref='-138635' />
    <tag k='link' v='R4_2:R3_2' />
    <tag k='type' v='virtual' />
  </way>
  <way id='1238' version='1'>
    <nd ref='-138631' />
    <nd ref='1228' />
    <nd ref='1229' />
    <nd ref='1230' />
    <nd ref='1231' />
    <nd ref='1232' />
    <nd ref='1233' />
    <nd ref='1234' />
    <nd ref='1235' />
    <nd ref='1236' />
    <nd ref='1237' />
    <nd ref='-138626' />
    <tag k='link' v='R4_3:R3_1' />
    <tag k='type' v='virtual' />
  </way>
  <way id='1245' version='1'>
    <nd ref='-138634' />
    <nd ref='1239' />
    <nd ref='1240' />
    <nd ref='1241' />
    <nd ref='1242' />
    <nd ref='1243' />
    <nd ref='1244' />
    <nd ref='-138628' />
    <tag k='link' v='R3_4:R4_1' />
    <tag k='type' v='virtual' />
  </way>
  <way id='1252' version='1'>
    <nd ref='-138632' />
    <nd ref='1246' />
    <nd ref='1247' />
    <nd ref='1248' />
    <nd ref='1249' />
    <nd ref='1250' />
    <nd ref='1251' />
    <nd ref='-138624' />
    <tag k='link' v='R4_4:R1_1' />
    <tag k='type' v='virtual' />
  </way>
  <way id='1259' version='1'>
    <nd ref='-138638' />
    <nd ref='1253' />
    <nd ref='1254' />
    <nd ref='1255' />
    <nd ref='1256' />
    <nd ref='1257' />
    <nd ref='1258' />
    <nd ref='-138626' />
    <tag k='link' v='R2_4:R3_1' />
    <tag k='type' v='virtual' />
  </way>
  <way id='1266' version='1'>
    <nd ref='-138641' />
    <nd ref='1260' />
    <nd ref='1261' />
    <nd ref='1262' />
    <nd ref='1263' />
    <nd ref='1264' />
    <nd ref='1265' />
    <nd ref='-138622' />
    <tag k='link' v='R1_4:R2_1' />
    <tag k='type' v='virtual' />
  </way>
  <relation id='-100030'>
    <member type='way' ref='-105465' role='left' />
    <member type='way' ref='-105486' role='right' />
    <tag k='location' v='urban' />
    <tag k='name' v='R1In1' />
    <tag k='one_way' v='yes' />
    <tag k='region' v='cn' />
    <tag k='subtype' v='road' />
    <tag k='type' v='lanelet' />
  </relation>
  <relation id='-100031'>
    <member type='way' ref='-105486' role='left' />
    <member type='way' ref='-105487' role='right' />
    <tag k='location' v='urban' />
    <tag k='name' v='R1In2' />
    <tag k='one_way' v='yes' />
    <tag k='region' v='cn' />
    <tag k='subtype' v='road' />
    <tag k='type' v='lanelet' />
  </relation>
  <relation id='-100032'>
    <member type='way' ref='-105487' role='left' />
    <member type='way' ref='-105492' role='right' />
    <tag k='location' v='urban' />
    <tag k='name' v='R1In3' />
    <tag k='one_way' v='yes' />
    <tag k='region' v='cn' />
    <tag k='subtype' v='road' />
    <tag k='type' v='lanelet' />
  </relation>
  <relation id='-100033'>
    <member type='way' ref='-105496' role='left' />
    <member type='way' ref='-105472' role='right' />
    <tag k='location' v='urban' />
    <tag k='name' v='R1Out1' />
    <tag k='one_way' v='yes' />
    <tag k='region' v='cn' />
    <tag k='subtype' v='road' />
    <tag k='type' v='lanelet' />
  </relation>
  <relation id='-100034'>
    <member type='way' ref='-105472' role='left' />
    <member type='way' ref='-105464' role='right' />
    <tag k='location' v='urban' />
    <tag k='name' v='R1Out2' />
    <tag k='one_way' v='yes' />
    <tag k='region' v='cn' />
    <tag k='subtype' v='road' />
    <tag k='type' v='lanelet' />
  </relation>
  <relation id='-100035'>
    <member type='way' ref='-105466' role='left' />
    <member type='way' ref='-105476' role='right' />
    <tag k='location' v='urban' />
    <tag k='name' v='R4In1' />
    <tag k='one_way' v='yes' />
    <tag k='region' v='cn' />
    <tag k='subtype' v='road' />
    <tag k='type' v='lanelet' />
  </relation>
  <relation id='-100036'>
    <member type='way' ref='-105476' role='left' />
    <member type='way' ref='-105477' role='right' />
    <tag k='location' v='urban' />
    <tag k='name' v='R4In2' />
    <tag k='one_way' v='yes' />
    <tag k='region' v='cn' />
    <tag k='subtype' v='road' />
    <tag k='type' v='lanelet' />
  </relation>
  <relation id='-100037'>
    <member type='way' ref='-105477' role='left' />
    <member type='way' ref='-105481' role='right' />
    <tag k='location' v='urban' />
    <tag k='name' v='R4In3' />
    <tag k='one_way' v='yes' />
    <tag k='region' v='cn' />
    <tag k='subtype' v='road' />
    <tag k='type' v='lanelet' />
  </relation>
  <relation id='-100038'>
    <member type='way' ref='-105467' role='left' />
    <member type='way' ref='-105455' role='right' />
    <tag k='location' v='urban' />
    <tag k='name' v='R3In1' />
    <tag k='one_way' v='yes' />
    <tag k='region' v='cn' />
    <tag k='subtype' v='road' />
    <tag k='type' v='lanelet' />
  </relation>
  <relation id='-100039'>
    <member type='way' ref='-105455' role='left' />
    <member type='way' ref='-105456' role='right' />
    <tag k='location' v='urban' />
    <tag k='name' v='R3In2' />
    <tag k='one_way' v='yes' />
    <tag k='region' v='cn' />
    <tag k='subtype' v='road' />
    <tag k='type' v='lanelet' />
  </relation>
  <relation id='-100040'>
    <member type='way' ref='-105456' role='left' />
    <member type='way' ref='-105482' role='right' />
    <tag k='location' v='urban' />
    <tag k='name' v='R3In3' />
    <tag k='one_way' v='yes' />
    <tag k='region' v='cn' />
    <tag k='subtype' v='road' />
    <tag k='type' v='lanelet' />
  </relation>
  <relation id='-100041'>
    <member type='way' ref='-105498' role='left' />
    <member type='way' ref='-105473' role='right' />
    <tag k='location' v='urban' />
    <tag k='name' v='R3Out1' />
    <tag k='one_way' v='yes' />
    <tag k='region' v='cn' />
    <tag k='subtype' v='road' />
    <tag k='type' v='lanelet' />
  </relation>
  <relation id='-100042'>
    <member type='way' ref='-105473' role='left' />
    <member type='way' ref='-105459' role='right' />
    <tag k='location' v='urban' />
    <tag k='name' v='R3Out2' />
    <tag k='one_way' v='yes' />
    <tag k='region' v='cn' />
    <tag k='subtype' v='road' />
    <tag k='type' v='lanelet' />
  </relation>
  <relation id='-100043'>
    <member type='way' ref='-105499' role='left' />
    <member type='way' ref='-105474' role='right' />
    <tag k='location' v='urban' />
    <tag k='name' v='R4Out1' />
    <tag k='one_way' v='yes' />
    <tag k='region' v='cn' />
    <tag k='subtype' v='road' />
    <tag k='type' v='lanelet' />
  </relation>
  <relation id='-100044'>
    <member type='way' ref='-105474' role='left' />
    <member type='way' ref='-105454' role='right' />
    <tag k='location' v='urban' />
    <tag k='name' v='R4Out2' />
    <tag k='one_way' v='yes' />
    <tag k='region' v='cn' />
    <tag k='subtype' v='road' />
    <tag k='type' v='lanelet' />
  </relation>
  <relation id='-100045'>
    <member type='way' ref='-105453' role='left' />
    <member type='way' ref='-105489' role='right' />
    <tag k='location' v='urban' />
    <tag k='name' v='R2In3' />
    <tag k='one_way' v='yes' />
    <tag k='region' v='cn' />
    <tag k='subtype' v='road' />
    <tag k='type' v='lanelet' />
  </relation>
  <relation id='-100046'>
    <member type='way' ref='-105469' role='left' />
    <member type='way' ref='-105488' role='right' />
    <tag k='location' v='urban' />
    <tag k='name' v='R2In1' />
    <tag k='one_way' v='yes' />
    <tag k='region' v='cn' />
    <tag k='subtype' v='road' />
    <tag k='type' v='lanelet' />
  </relation>
  <relation id='-100047'>
    <member type='way' ref='-105488' role='left' />
    <member type='way' ref='-105489' role='right' />
    <tag k='location' v='urban' />
    <tag k='name' v='R2In2' />
    <tag k='one_way' v='yes' />
    <tag k='region' v='cn' />
    <tag k='subtype' v='road' />
    <tag k='type' v='lanelet' />
  </relation>
  <relation id='-100048'>
    <member type='way' ref='-105475' role='left' />
    <member type='way' ref='-105460' role='right' />
    <tag k='location' v='urban' />
    <tag k='name' v='R4In1:gap' />
    <tag k='one_way' v='yes' />
    <tag k='region' v='cn' />
    <tag k='subtype' v='road' />
    <tag k='type' v='lanelet' />
  </relation>
  <relation id='-100049'>
    <member type='way' ref='-105460' role='left' />
    <member type='way' ref='-105461' role='right' />
    <tag k='location' v='urban' />
    <tag k='name' v='R4In2:gap' />
    <tag k='one_way' v='yes' />
    <tag k='region' v='cn' />
    <tag k='subtype' v='road' />
    <tag k='type' v='lanelet' />
  </relation>
  <relation id='-100050'>
    <member type='way' ref='-105461' role='left' />
    <member type='way' ref='-105490' role='right' />
    <tag k='location' v='urban' />
    <tag k='name' v='R4In3:gap' />
    <tag k='one_way' v='yes' />
    <tag k='region' v='cn' />
    <tag k='subtype' v='road' />
    <tag k='type' v='lanelet' />
  </relation>
  <relation id='-100051'>
    <member type='way' ref='-105484' role='left' />
    <member type='way' ref='-105463' role='right' />
    <tag k='location' v='urban' />
    <tag k='name' v='R1In1:gap' />
    <tag k='one_way' v='yes' />
    <tag k='region' v='cn' />
    <tag k='subtype' v='road' />
    <tag k='type' v='lanelet' />
  </relation>
  <relation id='-100052'>
    <member type='way' ref='-105463' role='left' />
    <member type='way' ref='-105462' role='right' />
    <tag k='location' v='urban' />
    <tag k='name' v='R1In2:gap' />
    <tag k='one_way' v='yes' />
    <tag k='region' v='cn' />
    <tag k='subtype' v='road' />
    <tag k='type' v='lanelet' />
  </relation>
  <relation id='-100053'>
    <member type='way' ref='-105462' role='left' />
    <member type='way' ref='-105493' role='right' />
    <tag k='location' v='urban' />
    <tag k='name' v='R1In3:gap' />
    <tag k='one_way' v='yes' />
    <tag k='region' v='cn' />
    <tag k='subtype' v='road' />
    <tag k='type' v='lanelet' />
  </relation>
  <relation id='-100054'>
    <member type='way' ref='-105480' role='left' />
    <member type='way' ref='-105478' role='right' />
    <tag k='location' v='urban' />
    <tag k='name' v='R3In1:gap' />
    <tag k='one_way' v='yes' />
    <tag k='region' v='cn' />
    <tag k='subtype' v='road' />
    <tag k='type' v='lanelet' />
  </relation>
  <relation id='-100055'>
    <member type='way' ref='-105478' role='left' />
    <member type='way' ref='-105479' role='right' />
    <tag k='location' v='urban' />
    <tag k='name' v='R3In2:gap' />
    <tag k='one_way' v='yes' />
    <tag k='region' v='cn' />
    <tag k='subtype' v='road' />
    <tag k='type' v='lanelet' />
  </relation>
  <relation id='-100056'>
    <member type='way' ref='-105479' role='left' />
    <member type='way' ref='-105485' role='right' />
    <tag k='location' v='urban' />
    <tag k='name' v='R3In3:gap' />
    <tag k='one_way' v='yes' />
    <tag k='region' v='cn' />
    <tag k='subtype' v='road' />
    <tag k='type' v='lanelet' />
  </relation>
  <relation id='-100057'>
    <member type='way' ref='-105483' role='left' />
    <member type='way' ref='-105457' role='right' />
    <tag k='location' v='urban' />
    <tag k='name' v='R2In1:gap' />
    <tag k='one_way' v='yes' />
    <tag k='region' v='cn' />
    <tag k='subtype' v='road' />
    <tag k='type' v='lanelet' />
  </relation>
  <relation id='-100058'>
    <member type='way' ref='-105457' role='left' />
    <member type='way' ref='-105458' role='right' />
    <tag k='location' v='urban' />
    <tag k='name' v='R2In2:gap' />
    <tag k='one_way' v='yes' />
    <tag k='region' v='cn' />
    <tag k='subtype' v='road' />
    <tag k='type' v='lanelet' />
  </relation>
  <relation id='-100059'>
    <member type='way' ref='-105458' role='left' />
    <member type='way' ref='-105491' role='right' />
    <tag k='location' v='urban' />
    <tag k='name' v='R2In3:gap' />
    <tag k='one_way' v='yes' />
    <tag k='region' v='cn' />
    <tag k='subtype' v='road' />
    <tag k='type' v='lanelet' />
  </relation>
  <relation id='-100060'>
    <member type='way' ref='-105497' role='left' />
    <member type='way' ref='-105471' role='right' />
    <tag k='location' v='urban' />
    <tag k='name' v='R2Out1' />
    <tag k='one_way' v='yes' />
    <tag k='region' v='cn' />
    <tag k='subtype' v='road' />
    <tag k='type' v='lanelet' />
  </relation>
  <relation id='-100061'>
    <member type='way' ref='-105471' role='left' />
    <member type='way' ref='-105452' role='right' />
    <tag k='location' v='urban' />
    <tag k='name' v='R2Out2' />
    <tag k='one_way' v='yes' />
    <tag k='region' v='cn' />
    <tag k='subtype' v='road' />
    <tag k='type' v='lanelet' />
  </relation>
  <relation id='-100062'>
    <member type='way' ref='-105451' role='ref_line' />
    <member type='way' ref='-105505' role='refers' />
    <tag k='subtype' v='traffic_light' />
    <tag k='type' v='regulatory_element' />
  </relation>
  <relation id='-100063'>
    <member type='way' ref='-105448' role='ref_line' />
    <member type='way' ref='-105508' role='refers' />
    <tag k='subtype' v='traffic_light' />
    <tag k='type' v='regulatory_element' />
  </relation>
  <relation id='-100064'>
    <member type='way' ref='-105450' role='ref_line' />
    <member type='way' ref='-105506' role='refers' />
    <tag k='subtype' v='traffic_light' />
    <tag k='type' v='regulatory_element' />
  </relation>
  <relation id='-100065'>
    <member type='way' ref='-105468' role='ref_line' />
    <member type='way' ref='-105507' role='refers' />
    <tag k='subtype' v='traffic_light' />
    <tag k='type' v='regulatory_element' />
  </relation>
  <relation id='-100128' action='modify'>
    <member type='way' ref='-105470' role='left' />
    <member type='way' ref='-105502' role='right' />
    <tag k='bicycle' v='yes' />
    <tag k='location' v='urban' />
    <tag k='name' v='N_crosswalk' />
    <tag k='one_way' v='no' />
    <tag k='region' v='cn' />
    <tag k='subtype' v='crosswalk' />
    <tag k='type' v='lanelet' />
  </relation>
  <relation id='-100183' action='modify'>
    <member type='way' ref='-105445' role='left' />
    <member type='way' ref='-105504' role='right' />
    <tag k='bicycle' v='yes' />
    <tag k='location' v='urban' />
    <tag k='name' v='W_crosswalk' />
    <tag k='one_way' v='no' />
    <tag k='subtype' v='crosswalk' />
    <tag k='type' v='lanelet' />
  </relation>
  <relation id='-100213' action='modify'>
    <member type='way' ref='-105503' role='left' />
    <member type='way' ref='-105449' role='right' />
    <tag k='bicycle' v='yes' />
    <tag k='location' v='urban' />
    <tag k='name' v='S_crosswalk' />
    <tag k='one_way' v='no' />
    <tag k='subtype' v='crosswalk' />
    <tag k='type' v='lanelet' />
  </relation>
  <relation id='-100239' action='modify'>
    <member type='way' ref='-105446' role='left' />
    <member type='way' ref='-105447' role='right' />
    <tag k='bicycle' v='yes' />
    <tag k='location' v='urban' />
    <tag k='name' v='E_crosswalk' />
    <tag k='one_way' v='no' />
    <tag k='subtype' v='crosswalk' />
    <tag k='type' v='lanelet' />
  </relation>
  <relation id='1267' version='1'>
    <member type='way' ref='1176' role='left' />
    <member type='way' ref='1166' role='right' />
    <tag k='name' v='R3In1_to_R2Out1' />
    <tag k='type' v='lanelet' />
  </relation>
  <relation id='1268' version='1'>
    <member type='way' ref='1196' role='left' />
    <member type='way' ref='1187' role='right' />
    <tag k='name' v='R1In1_to_R4Out1' />
    <tag k='type' v='lanelet' />
  </relation>
  <relation id='1269' version='1'>
    <member type='way' ref='1227' role='left' />
    <member type='way' ref='1238' role='right' />
    <tag k='name' v='R4In1_to_R3Out1' />
    <tag k='type' v='lanelet' />
  </relation>
  <relation id='1270' version='1'>
    <member type='way' ref='1206' role='left' />
    <member type='way' ref='1217' role='right' />
    <tag k='name' v='R2In1_to_R1Out1' />
    <tag k='type' v='lanelet' />
  </relation>
  <relation id='1271' version='1'>
    <member type='way' ref='1051' role='left' />
    <member type='way' ref='1064' role='right' />
    <tag k='name' v='R3In2_to_R1Out1' />
    <tag k='type' v='lanelet' />
  </relation>
  <relation id='1272' version='1'>
    <member type='way' ref='1064' role='left' />
    <member type='way' ref='1077' role='right' />
    <tag k='name' v='R3In3_to_R1Out2' />
    <tag k='type' v='lanelet' />
  </relation>
  <relation id='1273' version='1'>
    <member type='way' ref='1038' role='left' />
    <member type='way' ref='1025' role='right' />
    <tag k='name' v='R1In2_to_R3Out1' />
    <tag k='type' v='lanelet' />
  </relation>
  <relation id='1274' version='1'>
    <member type='way' ref='1025' role='left' />
    <member type='way' ref='1012' role='right' />
    <tag k='name' v='R1In3_to_R3Out2' />
    <tag k='type' v='lanelet' />
  </relation>
  <relation id='1275' version='1'>
    <member type='way' ref='1116' role='left' />
    <member type='way' ref='1103' role='right' />
    <tag k='name' v='R4In2_to_R2Out1' />
    <tag k='type' v='lanelet' />
  </relation>
  <relation id='1276' version='1'>
    <member type='way' ref='1103' role='left' />
    <member type='way' ref='1090' role='right' />
    <tag k='name' v='R4In3_to_R2Out2' />
    <tag k='type' v='lanelet' />
  </relation>
  <relation id='1277' version='1'>
    <member type='way' ref='1129' role='left' />
    <member type='way' ref='1142' role='right' />
    <tag k='name' v='R2In2_to_R4Out1' />
    <tag k='type' v='lanelet' />
  </relation>
  <relation id='1278' version='1'>
    <member type='way' ref='1142' role='left' />
    <member type='way' ref='1155' role='right' />
    <tag k='name' v='R2In3_to_R4Out2' />
    <tag k='type' v='lanelet' />
  </relation>
  <relation id='1279' version='1'>
    <member type='way' ref='1266' role='left' />
    <member type='way' ref='-105501' role='right' />
    <tag k='name' v='R1In3_to_R2Out2' />
    <tag k='type' v='lanelet' />
  </relation>
  <relation id='1280' version='1'>
    <member type='way' ref='1259' role='left' />
    <member type='way' ref='-105494' role='right' />
    <tag k='name' v='R2In3_to_R3Out2' />
    <tag k='type' v='lanelet' />
  </relation>
  <relation id='1281' version='1'>
    <member type='way' ref='1245' role='left' />
    <member type='way' ref='-105500' role='right' />
    <tag k='name' v='R3In3_to_R4Out2' />
    <tag k='type' v='lanelet' />
  </relation>
  <relation id='1282' version='1'>
    <member type='way' ref='1252' role='left' />
    <member type='way' ref='-105495' role='right' />
    <tag k='name' v='R4In3_to_R1Out2' />
    <tag k='type' v='lanelet' />
  </relation>
</osm>
